KUIPER-00191            
1 67143U 25301L   26187.46968964 -.00000295  00000+0 -96450-5 0  9994
2 67143  51.8997 267.9051 0000738  99.2833 260.8213 14.79920439 31244
KUIPER-00196            
1 67144U 25301M   26187.32085978  .00001603  00000+0  25949-3 0  9990
2 67144  51.8968 224.7243 0000798 319.5891  40.5010 14.76339038 31801
KUIPER-00204            
1 67145U 25301N   26187.39801718  .00002336  00000+0  33551-3 0  9998
2 67145  51.8999 240.7047 0000237  87.0364 273.0626 14.79913108 31700
KUIPER-00210            
1 67146U 25301P   26187.43591066  .00000433  00000+0  85751-4 0  9992
2 67146  51.8996 268.0071 0000483  86.3028 273.7989 14.79932054 31384
KUIPER-00221            
1 67147U 25301Q   26187.46159632 -.00000152  00000+0  90415-5 0  9998
2 67147  51.9005 275.4174 0000735 111.9980 248.1061 14.79926949 31119
KUIPER-00232            
1 67148U 25301R   26187.44401566  .00000031  00000+0  33094-4 0  9997
2 67148  51.8979 260.5194 0000546 102.0258 258.0766 14.79923647 31311
KUIPER-00241            
1 67149U 25301S   26187.46694889 -.00002450  00000+0 -29226-3 0  9992
2 67149  51.9021 270.4137 0000713 119.6828 240.4205 14.79955482 31518
KUIPER-00245            
1 67150U 25301T   26187.45888678 -.00000237  00000+0 -20232-5 0  9995
2 67150  51.9015 277.9607 0000773  99.6751 260.4298 14.79925560 31074
KUIPER-00246            
1 67151U 25301U   26187.44130353  .00000621  00000+0  11043-3 0  9998
2 67151  51.8987 262.9916 0000700 105.4200 254.6840 14.79933084 31308
KUIPER-00247            
1 67152U 25301V   26187.38455822  .00000606  00000+0  10849-3 0  9999
2 67152  51.8931 253.2178 0000556  98.4008 261.7017 14.79932195 31416
KUIPER-00248            
1 67153U 25301W   26187.33595005  .00002447  00000+0  35036-3 0  9993
2 67153  51.8969 236.0615 0000982  66.6864 293.4202 14.79880199 31811
KUIPER-00249            
1 67154U 25301X   26187.38727028  .00000121  00000+0  44912-4 0  9992
2 67154  51.8975 250.7636 0000605 107.6146 252.4883 14.79925822 31448
KUIPER-00250            
1 67155U 25301Y   26187.40483139  .00002978  00000+0  41960-3 0  9999
2 67155  51.8982 265.6384 0000643  94.1491 265.9545 14.79915411 31275
KUIPER-00251            
1 67156U 25301Z   26187.48585360  .00002686  00000+0  38109-3 0  9994
2 67156  51.8995 252.8478 0000327  56.7854 303.3140 14.79939136 31614
KUIPER-00252            
1 67157U 25301AA  26187.48316179  .00000440  00000+0  86737-4 0  9992
2 67157  51.8987 255.3110 0000558  94.9564 265.1462 14.79932053 31393
KUIPER-00261            
1 67158U 25301AB  26187.50614703 -.00000811  00000+0 -77434-4 0  9998
2 67158  51.9021 265.2624 0000584 115.6180 244.4842 14.79920288 31252
