{"fetched_at":"2026-07-07T07:58:09.009Z","source":"https://celestrak.org/NORAD/elements/gp.php?GROUP=kuiper&FORMAT=JSON","constellation":"kuiper","records":[{"OBJECT_NAME":"KUIPER-00191","OBJECT_ID":"2025-301L","EPOCH":"2026-07-06T11:16:21.184896","CLASSIFICATION_TYPE":"U","MEAN_MOTION":14.79920439,"ECCENTRICITY":0.0000738,"INCLINATION":51.8997,"RA_OF_ASC_NODE":267.9051,"ARG_OF_PERICENTER":99.2833,"MEAN_ANOMALY":260.8213,"EPHEMERIS_TYPE":0,"NORAD_CAT_ID":67143,"ELEMENT_SET_NO":999,"REV_AT_EPOCH":3124,"BSTAR":-0.000009645,"MEAN_MOTION_DOT":-0.00000295,"MEAN_MOTION_DDOT":0},{"OBJECT_NAME":"KUIPER-00196","OBJECT_ID":"2025-301M","EPOCH":"2026-07-06T07:42:02.284992","CLASSIFICATION_TYPE":"U","MEAN_MOTION":14.76339038,"ECCENTRICITY":0.00007982,"INCLINATION":51.8968,"RA_OF_ASC_NODE":224.7243,"ARG_OF_PERICENTER":319.5891,"MEAN_ANOMALY":40.501,"EPHEMERIS_TYPE":0,"NORAD_CAT_ID":67144,"ELEMENT_SET_NO":999,"REV_AT_EPOCH":3180,"BSTAR":0.0002594949,"MEAN_MOTION_DOT":0.00001603,"MEAN_MOTION_DDOT":0},{"OBJECT_NAME":"KUIPER-00204","OBJECT_ID":"2025-301N","EPOCH":"2026-07-06T09:33:08.684352","CLASSIFICATION_TYPE":"U","MEAN_MOTION":14.79913108,"ECCENTRICITY":0.0000237,"INCLINATION":51.8999,"RA_OF_ASC_NODE":240.7047,"ARG_OF_PERICENTER":87.0364,"MEAN_ANOMALY":273.0626,"EPHEMERIS_TYPE":0,"NORAD_CAT_ID":67145,"ELEMENT_SET_NO":999,"REV_AT_EPOCH":3170,"BSTAR":0.00033551,"MEAN_MOTION_DOT":0.00002336,"MEAN_MOTION_DDOT":0},{"OBJECT_NAME":"KUIPER-00210","OBJECT_ID":"2025-301P","EPOCH":"2026-07-06T10:27:42.681024","CLASSIFICATION_TYPE":"U","MEAN_MOTION":14.79932054,"ECCENTRICITY":0.0000483,"INCLINATION":51.8996,"RA_OF_ASC_NODE":268.0071,"ARG_OF_PERICENTER":86.3028,"MEAN_ANOMALY":273.7989,"EPHEMERIS_TYPE":0,"NORAD_CAT_ID":67146,"ELEMENT_SET_NO":999,"REV_AT_EPOCH":3138,"BSTAR":0.000085751,"MEAN_MOTION_DOT":0.00000433,"MEAN_MOTION_DDOT":0},{"OBJECT_NAME":"KUIPER-00221","OBJECT_ID":"2025-301Q","EPOCH":"2026-07-06T11:04:41.922048","CLASSIFICATION_TYPE":"U","MEAN_MOTION":14.79926949,"ECCENTRICITY":0.0000735,"INCLINATION":51.9005,"RA_OF_ASC_NODE":275.4174,"ARG_OF_PERICENTER":111.998,"MEAN_ANOMALY":248.1061,"EPHEMERIS_TYPE":0,"NORAD_CAT_ID":67147,"ELEMENT_SET_NO":999,"REV_AT_EPOCH":3111,"BSTAR":0.0000090415,"MEAN_MOTION_DOT":-0.00000152,"MEAN_MOTION_DDOT":0},{"OBJECT_NAME":"KUIPER-00232","OBJECT_ID":"2025-301R","EPOCH":"2026-07-06T10:39:22.953024","CLASSIFICATION_TYPE":"U","MEAN_MOTION":14.79923647,"ECCENTRICITY":0.0000546,"INCLINATION":51.8979,"RA_OF_ASC_NODE":260.5194,"ARG_OF_PERICENTER":102.0258,"MEAN_ANOMALY":258.0766,"EPHEMERIS_TYPE":0,"NORAD_CAT_ID":67148,"ELEMENT_SET_NO":999,"REV_AT_EPOCH":3131,"BSTAR":0.000033094,"MEAN_MOTION_DOT":3.1e-7,"MEAN_MOTION_DDOT":0},{"OBJECT_NAME":"KUIPER-00241","OBJECT_ID":"2025-301S","EPOCH":"2026-07-06T11:12:24.384096","CLASSIFICATION_TYPE":"U","MEAN_MOTION":14.79955482,"ECCENTRICITY":0.0000713,"INCLINATION":51.9021,"RA_OF_ASC_NODE":270.4137,"ARG_OF_PERICENTER":119.6828,"MEAN_ANOMALY":240.4205,"EPHEMERIS_TYPE":0,"NORAD_CAT_ID":67149,"ELEMENT_SET_NO":999,"REV_AT_EPOCH":3151,"BSTAR":-0.00029226,"MEAN_MOTION_DOT":-0.0000245,"MEAN_MOTION_DDOT":0},{"OBJECT_NAME":"KUIPER-00245","OBJECT_ID":"2025-301T","EPOCH":"2026-07-06T11:00:47.817792","CLASSIFICATION_TYPE":"U","MEAN_MOTION":14.7992556,"ECCENTRICITY":0.0000773,"INCLINATION":51.9015,"RA_OF_ASC_NODE":277.9607,"ARG_OF_PERICENTER":99.6751,"MEAN_ANOMALY":260.4298,"EPHEMERIS_TYPE":0,"NORAD_CAT_ID":67150,"ELEMENT_SET_NO":999,"REV_AT_EPOCH":3107,"BSTAR":-0.0000020232,"MEAN_MOTION_DOT":-0.00000237,"MEAN_MOTION_DDOT":0},{"OBJECT_NAME":"KUIPER-00246","OBJECT_ID":"2025-301U","EPOCH":"2026-07-06T10:35:28.624992","CLASSIFICATION_TYPE":"U","MEAN_MOTION":14.79933084,"ECCENTRICITY":0.00007,"INCLINATION":51.8987,"RA_OF_ASC_NODE":262.9916,"ARG_OF_PERICENTER":105.42,"MEAN_ANOMALY":254.684,"EPHEMERIS_TYPE":0,"NORAD_CAT_ID":67151,"ELEMENT_SET_NO":999,"REV_AT_EPOCH":3130,"BSTAR":0.00011043,"MEAN_MOTION_DOT":0.00000621,"MEAN_MOTION_DDOT":0},{"OBJECT_NAME":"KUIPER-00247","OBJECT_ID":"2025-301V","EPOCH":"2026-07-06T09:13:45.830208","CLASSIFICATION_TYPE":"U","MEAN_MOTION":14.79932195,"ECCENTRICITY":0.00005561,"INCLINATION":51.8931,"RA_OF_ASC_NODE":253.2178,"ARG_OF_PERICENTER":98.4008,"MEAN_ANOMALY":261.7017,"EPHEMERIS_TYPE":0,"NORAD_CAT_ID":67152,"ELEMENT_SET_NO":999,"REV_AT_EPOCH":3141,"BSTAR":0.00010848855,"MEAN_MOTION_DOT":0.00000606,"MEAN_MOTION_DDOT":0},{"OBJECT_NAME":"KUIPER-00248","OBJECT_ID":"2025-301W","EPOCH":"2026-07-06T08:03:46.084320","CLASSIFICATION_TYPE":"U","MEAN_MOTION":14.79880199,"ECCENTRICITY":0.00009821,"INCLINATION":51.8969,"RA_OF_ASC_NODE":236.0615,"ARG_OF_PERICENTER":66.6864,"MEAN_ANOMALY":293.4202,"EPHEMERIS_TYPE":0,"NORAD_CAT_ID":67153,"ELEMENT_SET_NO":999,"REV_AT_EPOCH":3181,"BSTAR":0.00035036485,"MEAN_MOTION_DOT":0.00002447,"MEAN_MOTION_DDOT":0},{"OBJECT_NAME":"KUIPER-00249","OBJECT_ID":"2025-301X","EPOCH":"2026-07-06T09:17:40.152192","CLASSIFICATION_TYPE":"U","MEAN_MOTION":14.79925822,"ECCENTRICITY":0.0000605,"INCLINATION":51.8975,"RA_OF_ASC_NODE":250.7636,"ARG_OF_PERICENTER":107.6146,"MEAN_ANOMALY":252.4883,"EPHEMERIS_TYPE":0,"NORAD_CAT_ID":67154,"ELEMENT_SET_NO":999,"REV_AT_EPOCH":3144,"BSTAR":0.000044911783,"MEAN_MOTION_DOT":0.00000121,"MEAN_MOTION_DDOT":0},{"OBJECT_NAME":"KUIPER-00250","OBJECT_ID":"2025-301Y","EPOCH":"2026-07-06T09:42:57.432096","CLASSIFICATION_TYPE":"U","MEAN_MOTION":14.79915411,"ECCENTRICITY":0.0000643,"INCLINATION":51.8982,"RA_OF_ASC_NODE":265.6384,"ARG_OF_PERICENTER":94.1491,"MEAN_ANOMALY":265.9545,"EPHEMERIS_TYPE":0,"NORAD_CAT_ID":67155,"ELEMENT_SET_NO":999,"REV_AT_EPOCH":3127,"BSTAR":0.0004196,"MEAN_MOTION_DOT":0.00002978,"MEAN_MOTION_DDOT":0},{"OBJECT_NAME":"KUIPER-00251","OBJECT_ID":"2025-301Z","EPOCH":"2026-07-06T11:39:37.751040","CLASSIFICATION_TYPE":"U","MEAN_MOTION":14.79939136,"ECCENTRICITY":0.0000327,"INCLINATION":51.8995,"RA_OF_ASC_NODE":252.8478,"ARG_OF_PERICENTER":56.7854,"MEAN_ANOMALY":303.314,"EPHEMERIS_TYPE":0,"NORAD_CAT_ID":67156,"ELEMENT_SET_NO":999,"REV_AT_EPOCH":3161,"BSTAR":0.00038109,"MEAN_MOTION_DOT":0.00002686,"MEAN_MOTION_DDOT":0},{"OBJECT_NAME":"KUIPER-00252","OBJECT_ID":"2025-301AA","EPOCH":"2026-07-06T11:35:45.178656","CLASSIFICATION_TYPE":"U","MEAN_MOTION":14.79932053,"ECCENTRICITY":0.0000558,"INCLINATION":51.8987,"RA_OF_ASC_NODE":255.311,"ARG_OF_PERICENTER":94.9564,"MEAN_ANOMALY":265.1462,"EPHEMERIS_TYPE":0,"NORAD_CAT_ID":67157,"ELEMENT_SET_NO":999,"REV_AT_EPOCH":3139,"BSTAR":0.000086737,"MEAN_MOTION_DOT":0.0000044,"MEAN_MOTION_DDOT":0},{"OBJECT_NAME":"KUIPER-00261","OBJECT_ID":"2025-301AB","EPOCH":"2026-07-06T12:08:51.103392","CLASSIFICATION_TYPE":"U","MEAN_MOTION":14.79920288,"ECCENTRICITY":0.0000584,"INCLINATION":51.9021,"RA_OF_ASC_NODE":265.2624,"ARG_OF_PERICENTER":115.618,"MEAN_ANOMALY":244.4842,"EPHEMERIS_TYPE":0,"NORAD_CAT_ID":67158,"ELEMENT_SET_NO":999,"REV_AT_EPOCH":3125,"BSTAR":-0.000077434,"MEAN_MOTION_DOT":-0.00000811,"MEAN_MOTION_DDOT":0}]}
